{
  "type": "FeatureCollection",
  "features": [
    {
      "type": "Feature",
      "properties": {
        "norad_id": 66774,
        "name": "TRANSPORTER-15DN",
        "group": "last-30-days",
        "lat": -77.07359328554328,
        "lon": -143.95487981439052,
        "alt_km": 519.3792352697737,
        "timestamp": "2025-12-25T03:55:54.953616+00:00",
        "meta_object_name": "TRANSPORTER-15DN",
        "meta_object_id": "2025-276DN",
        "meta_epoch": "2025-12-24T17:18:17.640000",
        "meta_mean_motion": 15.18610367,
        "meta_eccentricity": 0.0003031,
        "meta_inclination": 97.4412,
        "meta_ra_of_asc_node": 70.3218,
        "meta_arg_of_pericenter": 96.0881,
        "meta_mean_anomaly": 264.0699,
        "meta_ephemeris_type": 0,
        "meta_classification_type": "U",
        "meta_norad_cat_id": 66774,
        "meta_element_set_no": 999,
        "meta_rev_at_epoch": 394,
        "meta_bstar": 0.00048391,
        "meta_mean_motion_dot": 9.953e-05,
        "meta_mean_motion_ddot": 0,
        "tle_line1": "1 66774U 25276DN  25358.72103750  .00009953  00000+0  48391-3 0  9993",
        "tle_line2": "2 66774  97.4412  70.3218 0003031  96.0881 264.0699 15.18610367  3949"
      },
      "geometry": {
        "type": "Point",
        "coordinates": [
          -143.95487981439052,
          -77.07359328554328
        ]
      }
    },
    {
      "type": "Feature",
      "properties": {
        "norad_id": 66775,
        "name": "PHI 1",
        "group": "last-30-days",
        "lat": -80.52202751135289,
        "lon": -160.71526481095236,
        "alt_km": 518.9907786274289,
        "timestamp": "2025-12-25T03:55:54.953626+00:00",
        "meta_object_name": "PHI 1",
        "meta_object_id": "2025-276DP",
        "meta_epoch": "2025-12-24T18:51:57.078720",
        "meta_mean_motion": 15.18677215,
        "meta_eccentricity": 0.0002812,
        "meta_inclination": 97.4337,
        "meta_ra_of_asc_node": 70.3648,
        "meta_arg_of_pericenter": 64.7107,
        "meta_mean_anomaly": 295.4419,
        "meta_ephemeris_type": 0,
        "meta_classification_type": "U",
        "meta_norad_cat_id": 66775,
        "meta_element_set_no": 999,
        "meta_rev_at_epoch": 395,
        "meta_bstar": 0.00051086,
        "meta_mean_motion_dot": 0.00010531,
        "meta_mean_motion_ddot": 0,
        "tle_line1": "1 66775U 25276DP  25358.78607730  .00010531  00000+0  51086-3 0  9996",
        "tle_line2": "2 66775  97.4337  70.3648 0002812  64.7107 295.4419 15.18677215  3956"
      },
      "geometry": {
        "type": "Point",
        "coordinates": [
          -160.71526481095236,
          -80.52202751135289
        ]
      }
    },
    {
      "type": "Feature",
      "properties": {
        "norad_id": 66776,
        "name": "TRANSPORTER-15DQ",
        "group": "last-30-days",
        "lat": -81.7622788752312,
        "lon": -173.71661215111624,
        "alt_km": 519.0289397222423,
        "timestamp": "2025-12-25T03:55:54.953636+00:00",
        "meta_object_name": "TRANSPORTER-15DQ",
        "meta_object_id": "2025-276DQ",
        "meta_epoch": "2025-12-24T18:51:21.029184",
        "meta_mean_motion": 15.18723534,
        "meta_eccentricity": 0.0002899,
        "meta_inclination": 97.4375,
        "meta_ra_of_asc_node": 70.3771,
        "meta_arg_of_pericenter": 81.9186,
        "meta_mean_anomaly": 278.2377,
        "meta_ephemeris_type": 0,
        "meta_classification_type": "U",
        "meta_norad_cat_id": 66776,
        "meta_element_set_no": 999,
        "meta_rev_at_epoch": 395,
        "meta_bstar": 0.00051793,
        "meta_mean_motion_dot": 0.00010693,
        "meta_mean_motion_ddot": 0,
        "tle_line1": "1 66776U 25276DQ  25358.78566006  .00010693  00000+0  51793-3 0  9991",
        "tle_line2": "2 66776  97.4375  70.3771 0002899  81.9186 278.2377 15.18723534  3957"
      },
      "geometry": {
        "type": "Point",
        "coordinates": [
          -173.71661215111624,
          -81.7622788752312
        ]
      }
    },
    {
      "type": "Feature",
      "properties": {
        "norad_id": 66777,
        "name": "TRANSPORTER-15DR",
        "group": "last-30-days",
        "lat": -76.79045050315527,
        "lon": 104.6472316697652,
        "alt_km": 518.735906184439,
        "timestamp": "2025-12-25T03:55:54.953646+00:00",
        "meta_object_name": "TRANSPORTER-15DR",
        "meta_object_id": "2025-276DR",
        "meta_epoch": "2025-12-24T18:47:36.858336",
        "meta_mean_motion": 15.18959318,
        "meta_eccentricity": 0.0003544,
        "meta_inclination": 97.4464,
        "meta_ra_of_asc_node": 70.4085,
        "meta_arg_of_pericenter": 107.999,
        "meta_mean_anomaly": 252.1631,
        "meta_ephemeris_type": 0,
        "meta_classification_type": "U",
        "meta_norad_cat_id": 66777,
        "meta_element_set_no": 999,
        "meta_rev_at_epoch": 395,
        "meta_bstar": 0.00056583,
        "meta_mean_motion_dot": 0.0001177,
        "meta_mean_motion_ddot": 0,
        "tle_line1": "1 66777U 25276DR  25358.78306549  .00011770  00000+0  56583-3 0  9995",
        "tle_line2": "2 66777  97.4464  70.4085 0003544 107.9990 252.1631 15.18959318  3951"
      },
      "geometry": {
        "type": "Point",
        "coordinates": [
          104.6472316697652,
          -76.79045050315527
        ]
      }
    },
    {
      "type": "Feature",
      "properties": {
        "norad_id": 66778,
        "name": "TRANSPORTER-15DS",
        "group": "last-30-days",
        "lat": 70.65732672497589,
        "lon": -87.4425406899991,
        "alt_km": 509.264252167236,
        "timestamp": "2025-12-25T03:55:54.953656+00:00",
        "meta_object_name": "TRANSPORTER-15DS",
        "meta_object_id": "2025-276DS",
        "meta_epoch": "2025-12-18T19:26:21.991200",
        "meta_mean_motion": 15.16535337,
        "meta_eccentricity": 0.00032319,
        "meta_inclination": 97.4427,
        "meta_ra_of_asc_node": 64.4586,
        "meta_arg_of_pericenter": 41.3734,
        "meta_mean_anomaly": 318.7744,
        "meta_ephemeris_type": 0,
        "meta_classification_type": "U",
        "meta_norad_cat_id": 66778,
        "meta_element_set_no": 999,
        "meta_rev_at_epoch": 304,
        "meta_bstar": 0.00025483693,
        "meta_mean_motion_dot": 4.904e-05,
        "meta_mean_motion_ddot": 0,
        "tle_line1": "1 66778U 25276DS  25352.80997675  .00004904  00000+0  25484-3 0  9996",
        "tle_line2": "2 66778  97.4427  64.4586 0003231  41.3734 318.7744 15.16535337  3043"
      },
      "geometry": {
        "type": "Point",
        "coordinates": [
          -87.4425406899991,
          70.65732672497589
        ]
      }
    },
    {
      "type": "Feature",
      "properties": {
        "norad_id": 66791,
        "name": "STARLINK-35867",
        "group": "last-30-days",
        "lat": 13.447807209493563,
        "lon": -167.524655582029,
        "alt_km": 430.39286305708447,
        "timestamp": "2025-12-25T03:55:54.953669+00:00",
        "meta_object_name": "STARLINK-35867",
        "meta_object_id": "2025-278A",
        "meta_epoch": "2025-12-24T20:00:01.000224",
        "meta_mean_motion": 15.46193376,
        "meta_eccentricity": 0.0001432,
        "meta_inclination": 43.0002,
        "meta_ra_of_asc_node": 179.5255,
        "meta_arg_of_pericenter": 265.722,
        "meta_mean_anomaly": 73.3868,
        "meta_ephemeris_type": 0,
        "meta_classification_type": "U",
        "meta_norad_cat_id": 66791,
        "meta_element_set_no": 999,
        "meta_rev_at_epoch": 490,
        "meta_bstar": -0.045138,
        "meta_mean_motion_dot": -0.02022879,
        "meta_mean_motion_ddot": 0,
        "tle_line1": "1 66791U 25278A   25358.83334491 -.02022879  00000+0 -45138-1 0  9994",
        "tle_line2": "2 66791  43.0002 179.5255 0001432 265.7220  73.3868 15.46193376  4901"
      },
      "geometry": {
        "type": "Point",
        "coordinates": [
          -167.524655582029,
          13.447807209493563
        ]
      }
    },
    {
      "type": "Feature",
      "properties": {
        "norad_id": 66792,
        "name": "STARLINK-35990",
        "group": "last-30-days",
        "lat": 23.401429862662674,
        "lon": -154.75966138219943,
        "alt_km": 412.0619904201685,
        "timestamp": "2025-12-25T03:55:54.953679+00:00",
        "meta_object_name": "STARLINK-35990",
        "meta_object_id": "2025-278B",
        "meta_epoch": "2025-12-24T20:00:01.000224",
        "meta_mean_motion": 15.5058144,
        "meta_eccentricity": 0.0001763,
        "meta_inclination": 43.0001,
        "meta_ra_of_asc_node": 179.5013,
        "meta_arg_of_pericenter": 270.8291,
        "meta_mean_anomaly": 77.8604,
        "meta_ephemeris_type": 0,
        "meta_classification_type": "U",
        "meta_norad_cat_id": 66792,
        "meta_element_set_no": 999,
        "meta_rev_at_epoch": 490,
        "meta_bstar": -0.00084008,
        "meta_mean_motion_dot": -0.00049321,
        "meta_mean_motion_ddot": 0,
        "tle_line1": "1 66792U 25278B   25358.83334491 -.00049321  00000+0 -84008-3 0  9995",
        "tle_line2": "2 66792  43.0001 179.5013 0001763 270.8291  77.8604 15.50581440  4900"
      },
      "geometry": {
        "type": "Point",
        "coordinates": [
          -154.75966138219943,
          23.401429862662674
        ]
      }
    }
  ]
}